COMMENT,ORIGINATOR,NORAD_CAT_ID,OBJECT_NAME,OBJECT_TYPE,CLASSIFICATION_TYPE,INTLDES,EPOCH,EPOCH_MICROSECONDS,MEAN_MOTION,ECCENTRICITY,INCLINATION,RA_OF_ASC_NODE,ARG_OF_PERICENTER,MEAN_ANOMALY,EPHEMERIS_TYPE,ELEMENT_SET_NO,REV_AT_EPOCH,BSTAR,MEAN_MOTION_DOT,MEAN_MOTION_DDOT,FILE,TLE_LINE0,TLE_LINE1,TLE_LINE2,OBJECT_ID,OBJECT_NUMBER,SEMIMAJOR_AXIS,PERIOD,APOGEE,PERIGEE,DECAYED
"GENERATED VIA SPACETRACK.ORG API","18 SPCS","48890","SPACEBEE-104","PAYLOAD","U","21059M","2023-11-04 09:26:01","847616","15.47498737","0.0002472","97.6075","90.382","160.3387","199.7958","0","999","13095","0.0017445","0.00090423","0","4070271","0 SPACEBEE-104","1 48890U 21059M   23308.39307694  .00090423  00000-0  17445-2 0  9994","2 48890  97.6075  90.3820 0002472 160.3387 199.7958 15.47498737130951","2021-059M","48890","6802.183","93.053","425.729","422.366","0"
"GENERATED VIA SPACETRACK.ORG API","18 SPCS","48890","SPACEBEE-104","PAYLOAD","U","21059M","2023-11-04 21:50:55","190400","15.47604585","0.0002322","97.6069","90.9261","156.2704","203.8653","0","999","13103","0.0021974","0.00114695","0","4070865","0 SPACEBEE-104","1 48890U 21059M   23308.91036100  .00114695  00000-0  21974-2 0  9993","2 48890  97.6069  90.9261 0002322 156.2704 203.8653 15.47604585131039","2021-059M","48890","6801.873","93.047","425.317","422.158","0"
"GENERATED VIA SPACETRACK.ORG API","18 SPCS","48890","SPACEBEE-104","PAYLOAD","U","21059M","2023-11-04 21:50:55","190400","15.47604585","0.0002322","97.6069","90.9261","156.2704","203.8653","0","999","13103","0.0021974","0.00114695","0","4070910","0 SPACEBEE-104","1 48890U 21059M   23308.91036100  .00114695  00000-0  21974-2 0  9993","2 48890  97.6069  90.9261 0002322 156.2704 203.8653 15.47604585131039","2021-059M","48890","6801.873","93.047","425.317","422.158","0"
"GENERATED VIA SPACETRACK.ORG API","18 SPCS","48890","SPACEBEE-104","PAYLOAD","U","21059M","2023-11-05 08:42:38","899008","15.47726313","0.0002324","97.6069","91.4014","154.5127","205.6238","0","999","13110","0.0024627","0.00129339","0","4071952","0 SPACEBEE-104","1 48890U 21059M   23309.36295022  .00129339  00000-0  24627-2 0  9992","2 48890  97.6069  91.4014 0002324 154.5127 205.6238 15.47726313131104","2021-059M","48890","6801.516","93.040","424.962","421.800","0"
"GENERATED VIA SPACETRACK.ORG API","18 SPCS","48890","SPACEBEE-104","PAYLOAD","U","21059M","2023-11-05 08:42:38","899008","15.47726313","0.0002324","97.6069","91.4014","154.5127","205.6238","0","999","13110","0.0024627","0.00129339","0","4072138","0 SPACEBEE-104","1 48890U 21059M   23309.36295022  .00129339  00000-0  24627-2 0  9992","2 48890  97.6069  91.4014 0002324 154.5127 205.6238 15.47726313131104","2021-059M","48890","6801.516","93.040","424.962","421.800","0"
"GENERATED VIA SPACETRACK.ORG API","18 SPCS","48890","SPACEBEE-104","PAYLOAD","U","21059M","2023-11-05 22:40:30","444384","15.47914986","0.0002214","97.6072","92.0137","150.7054","209.432","0","999","13119","0.0037401","0.00199549","0","4072675","0 SPACEBEE-104","1 48890U 21059M   23309.94479681  .00199549  00000-0  37401-2 0  9995","2 48890  97.6072  92.0137 0002214 150.7054 209.4320 15.47914986131194","2021-059M","48890","6800.963","93.028","424.334","421.323","0"
"GENERATED VIA SPACETRACK.ORG API","18 SPCS","48890","SPACEBEE-104","PAYLOAD","U","21059M","2023-11-05 22:40:30","444384","15.47914986","0.0002214","97.6072","92.0137","150.7054","209.432","0","999","13119","0.0037401","0.00199549","0","4073162","0 SPACEBEE-104","1 48890U 21059M   23309.94479681  .00199549  00000-0  37401-2 0  9995","2 48890  97.6072  92.0137 0002214 150.7054 209.4320 15.47914986131194","2021-059M","48890","6800.963","93.028","424.334","421.323","0"
"GENERATED VIA SPACETRACK.ORG API","18 SPCS","48890","SPACEBEE-104","PAYLOAD","U","21059M","2023-11-06 07:59:00","954816","15.48053467","0.0002253","97.6074","92.4214","149.5885","210.5496","0","999","13125","0.0031923","0.00170489","0","4073963","0 SPACEBEE-104","1 48890U 21059M   23310.33264994  .00170489  00000-0  31923-2 0  9994","2 48890  97.6074  92.4214 0002253 149.5885 210.5496 15.48053467131250","2021-059M","48890","6800.558","93.020","423.955","420.891","0"
"GENERATED VIA SPACETRACK.ORG API","18 SPCS","48890","SPACEBEE-104","PAYLOAD","U","21059M","2023-11-06 07:59:00","954816","15.48053467","0.0002253","97.6074","92.4214","149.5885","210.5496","0","999","13125","0.0031923","0.00170489","0","4074285","0 SPACEBEE-104","1 48890U 21059M   23310.33264994  .00170489  00000-0  31923-2 0  9994","2 48890  97.6074  92.4214 0002253 149.5885 210.5496 15.48053467131250","2021-059M","48890","6800.558","93.020","423.955","420.891","0"
"GENERATED VIA SPACETRACK.ORG API","18 SPCS","48890","SPACEBEE-104","PAYLOAD","U","21059M","2023-11-06 21:56:42","433728","15.48187792","0.0002152","97.607","93.0338","145.5947","214.5442","0","999","13134","0.0021762","0.00115922","0","4074934","0 SPACEBEE-104","1 48890U 21059M   23310.91438002  .00115922  00000-0  21762-2 0  9992","2 48890  97.6070  93.0338 0002152 145.5947 214.5442 15.48187792131347","2021-059M","48890","6800.164","93.012","423.493","420.566","0"
"GENERATED VIA SPACETRACK.ORG API","18 SPCS","48890","SPACEBEE-104","PAYLOAD","U","21059M","2023-11-06 21:56:42","433728","15.48187792","0.0002152","97.607","93.0338","145.5947","214.5442","0","999","13134","0.0021762","0.00115922","0","4075133","0 SPACEBEE-104","1 48890U 21059M   23310.91438002  .00115922  00000-0  21762-2 0  9992","2 48890  97.6070  93.0338 0002152 145.5947 214.5442 15.48187792131347","2021-059M","48890","6800.164","93.012","423.493","420.566","0"
"GENERATED VIA SPACETRACK.ORG API","18 SPCS","48890","SPACEBEE-104","PAYLOAD","U","21059M","2023-11-07 08:48:11","355840","15.48307068","0.0002102","97.6068","93.5095","143.5607","216.5786","0","999","13141","0.00233","0.00124777","0","4076269","0 SPACEBEE-104","1 48890U 21059M   23311.36679810  .00124777  00000-0  23300-2 0  9994","2 48890  97.6068  93.5095 0002102 143.5607 216.5786 15.48307068131416","2021-059M","48890","6799.815","93.005","423.110","420.251","0"
"GENERATED VIA SPACETRACK.ORG API","18 SPCS","48890","SPACEBEE-104","PAYLOAD","U","21059M","2023-11-07 08:48:11","355840","15.48307068","0.0002102","97.6068","93.5095","143.5607","216.5786","0","999","13141","0.00233","0.00124777","0","4076432","0 SPACEBEE-104","1 48890U 21059M   23311.36679810  .00124777  00000-0  23300-2 0  9994","2 48890  97.6068  93.5095 0002102 143.5607 216.5786 15.48307068131416","2021-059M","48890","6799.815","93.005","423.110","420.251","0"
"GENERATED VIA SPACETRACK.ORG API","18 SPCS","48890","SPACEBEE-104","PAYLOAD","U","21059M","2023-11-07 22:45:44","892000","15.4842681","0.0001738","97.6067","94.1213","137.4064","222.7321","0","999","13150","0.0020177","0.0010826","0","4077615","0 SPACEBEE-104","1 48890U 21059M   23311.94843625  .00108260  00000-0  20177-2 0  9993","2 48890  97.6067  94.1213 0001738 137.4064 222.7321 15.48426810131508","2021-059M","48890","6799.465","92.998","422.511","420.148","0"
"GENERATED VIA SPACETRACK.ORG API","18 SPCS","48890","SPACEBEE-104","PAYLOAD","U","21059M","2023-11-08 08:04:04","924704","15.4851308","0.0001787","97.6066","94.5293","135.2697","224.8698","0","999","13156","0.0019339","0.00104015","0","4078352","0 SPACEBEE-104","1 48890U 21059M   23312.33616811  .00104015  00000-0  19339-2 0  9994","2 48890  97.6066  94.5293 0001787 135.2697 224.8698 15.48513080131563","2021-059M","48890","6799.212","92.992","422.292","419.862","0"
"GENERATED VIA SPACETRACK.ORG API","18 SPCS","48890","SPACEBEE-104","PAYLOAD","U","21059M","2023-11-08 22:01:31","770048","15.4862789","0.0001574","97.6062","95.1417","127.5304","232.6089","0","999","13165","0.0018408","0.00099339","0","4078917","0 SPACEBEE-104","1 48890U 21059M   23312.91772882  .00099339  00000-0  18408-2 0  9997","2 48890  97.6062  95.1417 0001574 127.5304 232.6089 15.48627890131653","2021-059M","48890","6798.876","92.986","421.811","419.671","0"
"GENERATED VIA SPACETRACK.ORG API","18 SPCS","48890","SPACEBEE-104","PAYLOAD","U","21059M","2023-11-09 08:52:49","945728","15.48722592","0.0001627","97.6064","95.6176","129.2397","230.8998","0","999","13172","0.001898","0.00102813","0","4079751","0 SPACEBEE-104","1 48890U 21059M   23313.37002252  .00102813  00000-0  18980-2 0  9992","2 48890  97.6064  95.6176 0001627 129.2397 230.8998 15.48722592131724","2021-059M","48890","6798.599","92.980","421.570","419.358","0"
"GENERATED VIA SPACETRACK.ORG API","18 SPCS","48890","SPACEBEE-104","PAYLOAD","U","21059M","2023-11-09 08:52:49","945728","15.48722592","0.0001627","97.6064","95.6176","129.2397","230.8998","0","999","13172","0.001898","0.00102813","0","4080359","0 SPACEBEE-104","1 48890U 21059M   23313.37002252  .00102813  00000-0  18980-2 0  9992","2 48890  97.6064  95.6176 0001627 129.2397 230.8998 15.48722592131724","2021-059M","48890","6798.599","92.980","421.570","419.358","0"
"GENERATED VIA SPACETRACK.ORG API","18 SPCS","48890","SPACEBEE-104","PAYLOAD","U","21059M","2023-11-09 22:50:10","68288","15.48833034","0.0001695","97.6068","96.2309","125.9219","234.2189","0","999","13181","0.0017755","0.00096464","0","4080838","0 SPACEBEE-104","1 48890U 21059M   23313.95150542  .00096464  00000-0  17755-2 0  9995","2 48890  97.6068  96.2309 0001695 125.9219 234.2189 15.48833034131818","2021-059M","48890","6798.276","92.973","421.293","418.988","0"
"GENERATED VIA SPACETRACK.ORG API","18 SPCS","48890","SPACEBEE-104","PAYLOAD","U","21059M","2023-11-10 09:41:23","107488","15.48924347","0.000175","97.6069","96.7071","122.5753","237.5666","0","999","13188","0.0016452","0.00089584","0","4081928","0 SPACEBEE-104","1 48890U 21059M   23314.40373967  .00089584  00000-0  16452-2 0  9992","2 48890  97.6069  96.7071 0001750 122.5753 237.5666 15.48924347131889","2021-059M","48890","6798.009","92.968","421.063","418.684","0"
